[{"OBJECT_NAME":"STARLINK-6180","OBJECT_ID":"2023-083M","EPOCH":"2026-03-09T01:17:14.528832","MEAN_MOTION":15.02535054,"ECCENTRICITY":0.00013351,"INCLINATION":43.0039,"RA_OF_ASC_NODE":85.3208,"ARG_OF_PERICENTER":256.6188,"MEAN_ANOMALY":103.4506,"EPHEMERIS_TYPE":0,"CLASSIFICATION_TYPE":"U","NORAD_CAT_ID":56887,"ELEMENT_SET_NO":999,"REV_AT_EPOCH":15157,"BSTAR":-5.402648e-6,"MEAN_MOTION_DOT":-2.77e-6,"MEAN_MOTION_DDOT":0},{"OBJECT_NAME":"COSMOS 2251 DEB","OBJECT_ID":"1993-036BSM","EPOCH":"2026-03-05T18:25:12.242784","MEAN_MOTION":14.77934954,"ECCENTRICITY":0.01163021,"INCLINATION":73.9376,"RA_OF_ASC_NODE":193.5346,"ARG_OF_PERICENTER":49.2659,"MEAN_ANOMALY":311.8542,"EPHEMERIS_TYPE":0,"CLASSIFICATION_TYPE":"U","NORAD_CAT_ID":38197,"ELEMENT_SET_NO":999,"REV_AT_EPOCH":86980,"BSTAR":0.0037051809,"MEAN_MOTION_DOT":0.00029983,"MEAN_MOTION_DDOT":0}]
